Id,Name,Description,Longitude,Latitude,Address,Phone,Email,District,StandbyTimesUrl,ShareStandbyTimes,HasCTH,HasSIGLIC,HasEmergency,InstitutionURL
141,"Hospital de Santo Tirso (Centro Hospitalar do Médio Ave, EPE)","Centro Hospitalar do Médio Ave, EPE",-8.48007,41.342344,Largo Domingos Moreira 4780-371 Santo Tirso,252830707,administracao@chma.min-saude.pt,Porto,http://api.pds.min-saude.pt/api/Tems/standbytime?id=141,True,True,True,True,http://www.chma.pt
168,"Hospital Pediátrico de Coimbra (Centro Hospitalar e Universitário de Coimbra, EPE) ","Centro Hospitalar e Universitário de Coimbra, EPE",-8.413439,40.224481,Av. Afonso Romão 3000-602 Coimbra,239488700,correio@hpc.chc.min-saude.pt,Coimbra,http://api.pds.min-saude.pt/api/Tems/standbytime?id=168,True,True,True,True,http://www.chuc.min-saude.pt
213,"Hospital Nossa Senhora do Rosário (Centro Hospitalar Barreiro Montijo, EPE)","Centro Hospitalar Barreiro Montijo, EPE",-9.059571,38.656545,Av. Movimento das Forças Armadas 2834-003 Barreiro,212147300,admin@chbm.min-saude.pt,Setúbal,http://api.pds.min-saude.pt/api/Tems/standbytime?id=213,True,True,True,True,http://www.chbm.min-saude.pt
222,"Hospital Distrital do Montijo (Centro Hospitalar Barreiro Montijo, EPE)","Centro Hospitalar Barreiro Montijo, EPE",-8.969652,38.679925,"Rua Machado dos Santos, 54 2870-351 Montijo",212147300,admin@chbm.min-saude.pt,Setúbal,http://api.pds.min-saude.pt/api/Tems/standbytime?id=222,True,True,True,True,http://www.chbm.min-saude.pt
219,"Hospital Distrital de Santarém, EPE",,-8.726093,39.262611,Av. Bernardo Santareno - Apartado 115 2005-177 Santarém,243300200,hdsca@hds.min-saude.pt,Santarém,http://api.pds.min-saude.pt/api/Tems/standbytime?id=219,True,True,True,True,http://www.hds.min-saude.pt/
211,"Hospital São José (Centro Hospitalar Lisboa Central, EPE)",Centro Hospitalar Lisboa Central,-9.1367603,38.716817,Rua José António Serrano 1150-199 Lisboa,218841000,sec.ca@chlc.min-saude.pt,Lisboa,http://api.pds.min-saude.pt/api/Tems/standbytime?id=211,True,True,True,True,http://www.chlc.min-saude.pt/
191,"Hospital Nossa Senhora da Assunção - Seia (Unidade Local de Saúde da Guarda, EPE)","Unidade Local de Saúde da Guarda, EPE",-7.697422,40.42085,Rua Alexandrina Soares Albergaria 6270-49 Seia,238320700,secretariado.ca@ulsguarda.min-saude.pt,Guarda,http://api.pds.min-saude.pt/api/Tems/standbytime?id=191,True,True,True,True,http://www.ulsguarda.min-saude.pt
205,"Hospital Rainha Santa Isabel - Torres Novas (Centro Hospitalar Médio Tejo, EPE)","Centro Hospitalar Médio Tejo, EPE",-8.550128,39.52267,Av. Xanana Gusmão - Ap. 45 2350-754 Torres Novas,249810100,geral@chmt.min-saude.pt,Santarém,http://api.pds.min-saude.pt/api/Tems/standbytime?id=205,True,True,True,True,http://www.chmt.min-saude.pt/
541,"Centro de Saúde Castro Verde (SUB - Unidade Local de Saúde do Baixo Alentejo, EPE)","Unidade Local de Saúde do Baixo Alentejo, EPE",-8.085975,37.701522,"Av. General Humberto Delgado, Apartado 17 7780-123 Castro Verde",286320140,cscastro@ulsba.min-saude.pt,Beja,http://api.pds.min-saude.pt/api/Tems/standbytime?id=541,True,False,False,True,http://www.ulsba.min-saude.pt/
151,"Hospital São Gonçalo - Amarante (Centro Hospitalar Tâmega e Sousa, EPE)","Centro Hospitalar Tâmega e Sousa, EPE",-8.080458,41.270974,"Rua da Lama, nº 76 4600-758 Amarante",255410500,administracao@chts.min-saude.pt,Porto,http://api.pds.min-saude.pt/api/Tems/standbytime?id=151,True,True,True,True,http://www.chtamegasousa.pt
145,"Hospital São Pedro de Vila Real (Centro Hospitalar de Trás-os-Montes e Alto Douro, EPE)","Centro Hospitalar de Trás-os-Montes e Alto Douro, EPE",-7.758708,41.308716457,Avenida da Noruega 5000-508 Vila Real,259300500,geral@chtmad.min-saude.pt,Vila Real,http://api.pds.min-saude.pt/api/Tems/standbytime?id=145,True,True,True,True,http://www.chtmad.min-saude.pt
177,Hospital São Pedro Gonçalves Telmo - Peniche (Centro Hospitalar do Oeste) ,Centro Hospitalar do Oeste,-9.38276622,39.36351068,Rua General Humberto Delgado 2520-447 Peniche,262780900,geral@hpeniche.min-saude.pt,Leiria,http://api.pds.min-saude.pt/api/Tems/standbytime?id=177,True,True,True,True,http://www.choeste.min-saude.pt/
6578,"Hospital Pedro Hispano (Unidade Local de Saúde de Matosinhos, EPE)","Unidade Local de Saúde de Matosinhos, EPE",-8.658875,41.181732,Rua Dr. Eduardo Torres 4454-509 Matosinhos,229391000,ca@ulsm.min-saude.pt,Porto,http://api.pds.min-saude.pt/api/Tems/standbytime?id=6578,True,True,True,True,http://www.ulsm.min-saude.pt
169,"Maternidade Bissaya Barreto (Centro Hospitalar e Universitário de Coimbra, EPE) ","Centro Hospitalar e Universitário de Coimbra, EPE",-8.414404,40.212729,Rua Augusta 3000-061  Coimbra,239480400,adm.mbb@chc.min-saude.pt,Coimbra,http://api.pds.min-saude.pt/api/Tems/standbytime?id=169,False,True,True,True,http://www.chuc.min-saude.pt
318,Centro de Saúde de Montalegre,,-7.828637,41.771901,"Rua Lama do Moinho, n.º 400 5470-225 Montalegre",276510160,csmontalegre@srsvreal.min-saude.pt,Vila Real,http://api.pds.min-saude.pt/api/Tems/standbytime?id=318,False,False,False,True,
344,Centro de Saúde de Arouca,,-8.243175,40.925867,Rua Dr. Ângelo Miranda 4540-140 Arouca,256940330,csarouca@csarouca.min-saude.pt,Aveiro,http://api.pds.min-saude.pt/api/Tems/standbytime?id=344,False,False,False,True,
135,"Hospital Distrital de Bragança (Unidade Local de Saúde do Nordeste, EPE) ","Unidade Local de Saúde do Nordeste, EPE",-6.773279,41.802904,Av. Abade Baçal 5301-852 B Bragança,273310800,secretariado@ulsne.min-saude.pt,Bragança,http://api.pds.min-saude.pt/api/Tems/standbytime?id=135,True,True,True,True,http://www.ulsne.min-saude.pt
137,"Hospital Distrital de Mirandela (Unidade Local de Saúde do Nordeste, EPE) ","Unidade Local de Saúde do Nordeste, EPE",-7.189462,41.485725,Av. Nossa Senhora do Amparo 5370-210 Mirandela,278260500,secretariado@ulsne.min-saude.pt,Bragança,http://api.pds.min-saude.pt/api/Tems/standbytime?id=137,True,True,True,True,http://www.ulsne.min-saude.pt
186,"Hospital Distrital Pombal (Centro Hospitalar de Leiria, EPE) ","Centro Hospitalar de Leiria, EPE",-8.62722617,39.91735,Av. Heróis do Ultramar - Apartado 40 3100-462 Pombal,236210000,secca@chleiria.min-saude.pt,Leiria,http://api.pds.min-saude.pt/api/Tems/standbytime?id=186,True,True,True,True,http://www.chleiria.pt
146,"Hospital São João (Centro Hospitalar de São João, EPE)","Centro Hospitalar de São João, EPE",-8.600733,41.182126,Alameda Professor Hernâni Monteiro 4200-319 P Porto,225512100,geral@chsj.min-saude.pt,Porto,http://api.pds.min-saude.pt/api/Tems/standbytime?id=146,True,True,True,True,http://www.portal-chsj.min-saude.pt
171,"Hospitais da Universidade de Coimbra (Centro Hospitalar e Universitário de Coimbra, EPE) ","Centro Hospitalar e Universitário de Coimbra, EPE",-8.412677,40.220492,Av. Bissaya Barreto - Praceta Prof. Mota Pinto 3000-075 Coimbra,239400400,casec@huc.min-saude.pt,Coimbra,http://api.pds.min-saude.pt/api/Tems/standbytime?id=171,True,True,True,True,http://www.chuc.min-saude.pt
2564,Hospital Distrital Caldas da Rainha (Centro Hospitalar do Oeste) ,Centro Hospitalar do Oeste,-9.1297355,39.4044994,Rua Diário de Notícias 2500-176 Caldas da Rainha,262830300,secretariado.ca@choeste.min-saude.pt,Leiria,http://api.pds.min-saude.pt/api/Tems/standbytime?id=2564,True,True,True,True,http://www.choeste.min-saude.pt/
577,"Centro de Saúde de Ponte de Sor (SUB - Unidade Local de Saúde do Norte Alentejano, EPE)","Unidade Local de Saúde do Norte Alentejano, EPE",-8.014518321,39.25126222,Passeio Garibaldino de Andrade n.º 1 7400-294 Ponte de Sôr,242292000,geral.cs.pontedesor@ulsna.min-saude.pt,Portalegre,http://api.pds.min-saude.pt/api/Tems/standbytime?id=577,True,False,False,True,http://www.ulsna.min-saude.pt
208,"Hospital Dona Estefânia (Centro Hospitalar Lisboa Central, EPE)",Centro Hospitalar Lisboa Central,-9.138393,38.727517,Rua Jacinta Marto 1169-045 Lisboa,213126600,sec.adm.hde@chlc.min-saude.pt,Lisboa,http://api.pds.min-saude.pt/api/Tems/standbytime?id=208,True,True,True,True,http://www.chlc.min-saude.pt/
405,"Centro de Saúde de Vila Nova de Foz Côa (SUB - Unidade Local de Saúde da Guarda, EPE)","Unidade Local de Saúde da Guarda, EPE",-7.233593,41.015628,"Avenida da Misericórdia, 5 5150-632 Vila Nova de Foz Côa",279760050,secretariado.ca@ulsguarda.min-saude.pt,Guarda,http://api.pds.min-saude.pt/api/Tems/standbytime?id=405,True,False,False,True,http://www.ulsguarda.min-saude.pt
220,Hospital Distrital Torres Vedras (Centro Hospitalar do Oeste) ,Centro Hospitalar do Oeste,-9.2573522,39.0864259,Rua Dr. Aurélio Ricardo Belo 2560-324 Torres Vedras,261319300,secretariado.ca@choeste.min-saude.pt,Lisboa,http://api.pds.min-saude.pt/api/Tems/standbytime?id=220,True,True,True,True,http://www.choeste.min-saude.pt/
236,"Hospital de Faro (Centro Hospitalar do Algarve, EPE) ","Centro Hospitalar do Algarve, EPE",-7.929222,37.024667,Rua Leão Penedo 8000-386 Faro,289891100,administracao@chalgarve.min-saude.pt,Faro,http://api.pds.min-saude.pt/api/Tems/standbytime?id=236,True,True,True,True,http://www.chalgarve.min-saude.pt
173,"Hospital Amato Lusitano - Castelo Branco (Unidade Local de Saúde de Castelo Branco, EPE)","Unidade Local de Saúde de Castelo Branco, EPE",-7.499842644,39.82292466,Av. Pedro Álvares Cabral 6000-084 Castelo Branco,272000272,geral@ulscb.min-saude.pt,Castelo Branco,http://api.pds.min-saude.pt/api/Tems/standbytime?id=173,True,True,True,True,http://www.ulscb.min-saude.pt/
237,"Hospital de Lagos (Centro Hospitalar do Algarve, EPE) ","Centro Hospitalar do Algarve, EPE",-8.670194,37.099639,Rua Castelo dos Governadores 8600-563 Lagos,282770100,administracao@chalgarve.min-saude.pt,Faro,http://api.pds.min-saude.pt/api/Tems/standbytime?id=237,True,False,True,True,http://www.chalgarve.min-saude.pt
238,"Hospital de Portimão (Centro Hospitalar do Algarve, EPE) ","Centro Hospitalar do Algarve, EPE",-8.539361,37.1324829,Sítio do Poço Seco 8500-338 Portimão,282450300,administracao@chalgarve.min-saude.pt,Faro,http://api.pds.min-saude.pt/api/Tems/standbytime?id=238,True,True,True,True,http://www.chalgarve.min-saude.pt
223,"Hospital Professor Doutor Fernando Fonseca, EPE",,-9.246694,38.744861,IC 19-Venteira 2720-276 Amadora,214348200,sec.geral@hff.min-saude.pt,Lisboa,http://api.pds.min-saude.pt/api/Tems/standbytime?id=223,True,True,True,True,http://www.hff.min-saude.pt
333,"Centro de Saúde Monção (SUB - Unidade Local de Saúde do Alto Minho, EPE)","Unidade Local de Saúde do Alto Minho, EPE",-8.549406,42.031588,Lugar de Barreiras - Mazedo 4950-404 Monção,251653926,csmoncao@csmoncao.min-saude.pt,Viana do Castelo,http://api.pds.min-saude.pt/api/Tems/standbytime?id=333,True,False,False,True,http://www.cham.min-saude.pt/
189,"Hospital Infante D. Pedro - Aveiro (Centro Hospitalar do Baixo Vouga, EPE)","Centro Hospitalar do Baixo Vouga, EPE",-8.6543716,40.6362453,Av. Artur Ravara 3814-501 Aveiro,234378300,sec-adm@chbv.min-saude.pt,Aveiro,http://api.pds.min-saude.pt/api/Tems/standbytime?id=189,True,True,True,True,http://www.chbv.min-saude.pt
185,"Hospital Distrital São João da Madeira (Centro Hospitalar de Entre o Douro e Vouga, EPE)","Centro Hospitalar de Entre Douro e Vouga, EPE",-8.494523764,40.89358667,Av. da Misericórdia 3700-190 São João da  Madeira,256837500,hsjm@chedv.min-saude.pt,Aveiro,http://api.pds.min-saude.pt/api/Tems/standbytime?id=185,True,True,True,True,http://www.chedv.min-saude.pt
196,"Instituto Português de Oncologia de Coimbra Francisco Gentil, EPE",IPO Coimbra,-8.409669399,40.21797905,"Av. Bissaya Barreto, 98 3000-075 Coimbra",239400200,secad@ipocoimbra.min-saude.pt,Coimbra,http://api.pds.min-saude.pt/api/Tems/standbytime?id=196,False,True,True,False,http://www.croc.min-saude.pt/
193,"Hospital Psiquiátrico Sobral Cid (Centro Hospitalar e Universitário de Coimbra, EPE) ","Centro Hospitalar e Universitário de Coimbra, EPE",-8.400608,40.176031,Conraria 3031-801 Ceira,239796400,geral@chpc.min-saude.pt,Coimbra,http://api.pds.min-saude.pt/api/Tems/standbytime?id=193,False,True,True,False,http://www.chuc.min-saude.pt
142,"Hospital Dom Luiz I - Peso da Régua (Centro Hospitalar de Trás-os-Montes e Alto Douro, EPE)","Centro Hospitalar de Trás-os-Montes e Alto Douro, EPE",-7.792460918,41.16563551,Praceta Delfim Ferreira 5054-001 Peso da Régua,254320430,geral@chtmad.min-saude.pt,Vila Real,http://api.pds.min-saude.pt/api/Tems/standbytime?id=142,False,True,True,False,http://www.chtmad.min-saude.pt
439,Centro de Saúde de São Pedro do Sul,,-8.067956,40.755379,Largo do Hospital 3660-439 São Pedro do Sul,232720180,,Viseu,http://api.pds.min-saude.pt/api/Tems/standbytime?id=439,False,False,False,True,
147,"Hospital de Famalicão (Centro Hospitalar do Médio Ave, EPE)","Centro Hospitalar do Médio Ave, EPE",-8.52108,41.412323,Rua de Cupertino de Miranda 4764-958 Vila Nova de Famalicão,252300800,administracao@chma.min-saude.pt,Braga,http://api.pds.min-saude.pt/api/Tems/standbytime?id=147,True,True,True,True,http://www.chma.pt
181,"Hospital Distrital Figueira da Foz, EPE",,-8.860848,40.130358,Gala 3094-001 Figueira da Foz,233402000,hdff@hdfigueira.min-saude.pt,Coimbra,http://api.pds.min-saude.pt/api/Tems/standbytime?id=181,True,True,True,True,http://www.hdfigueira.pt
172,"Maternidade Dr. Daniel de Matos (Centro Hospitalar e Universitário de Coimbra, EPE) ","Centro Hospitalar e Universitário de Coimbra, EPE",-8.411143,40.207821,Rua Miguel Torga 3030-165 Coimbra,239403060,secobstetricia@huc.min-saude.pt,Coimbra,http://api.pds.min-saude.pt/api/Tems/standbytime?id=172,True,True,True,True,http://www.chuc.min-saude.pt
234,"Hospital Dr. José Maria Grande - Portalegre (Unidade Local de Saúde do Norte Alentejano, EPE)","Unidade Local de Saúde do Norte Alentejano, EPE",-7.42762953,39.3000641,Av. de Santo António 7300-853 PORTA Portalegre,245301000,admin@ulsna.min-saude.pt,Portalegre,http://api.pds.min-saude.pt/api/Tems/standbytime?id=234,True,True,True,True,http://www.ulsna.min-saude.pt
179,"Hospital São Teotónio - Viseu (Centro Hospitalar Tondela-Viseu, EPE)","Centro Hospitalar Tondela-Viseu, EPE",-8.08287,40.51689,Av. do Rei D. Duarte 3504-509  Viseu,232420500,geral@hstviseu.min-saude.pt,Viseu,http://api.pds.min-saude.pt/api/Tems/standbytime?id=179,True,True,True,True,http://www.hstviseu.min-saude.pt/
148,Hospital São José  - Fafe,,-8.17214,41.448674,Praça José Florêncio Soares - Apartado 120 4820-148 Fafe,253540330,geral.hsj@scmfafe.pt,Braga,http://api.pds.min-saude.pt/api/Tems/standbytime?id=148,True,True,True,True,http://www.hsj.scmfafe.pt/
178,"Hospital São Sebastião (Centro Hospitalar de Entre o Douro e Vouga, EPE)","Centro Hospitalar de Entre Douro e Vouga, EPE",-8.547738791,40.93016984,Rua Dr. Cândido de Pinho 4520-211 Santa Maria da Feira,256379700,hssebastiao@chedv.min-saude.pt,Aveiro,http://api.pds.min-saude.pt/api/Tems/standbytime?id=178,True,True,True,True,http://www.chedv.min-saude.pt
2077,"Hospital de Vila do Conde (Centro Hospitalar Póvoa de Varzim/Vila do Conde, EPE)","Centro Hospitalar Póvoa de Varzim Vila do Conde, EPE",-8.744714,41.354397,Largo Dr. António José de Almeida 4480-733 Vila do Conde,252299100,cavc@chpvvc.min-saude.pt,Porto,http://api.pds.min-saude.pt/api/Tems/standbytime?id=2077,False,True,True,False,http://www.chpvvc.pt/
165,Hospital Termal Rainha D. Leonor (Centro Hospitalar do Oeste) ,Centro Hospitalar do Oeste,-9.132535458,39.40318942,Largo Rainha D. Leonor 2500-176 Caldas da Rainha,262830300,secretariado.ca@choeste.min-saude.pt,Leiria,http://api.pds.min-saude.pt/api/Tems/standbytime?id=165,False,True,False,False,http://www.choeste.min-saude.pt/
431,Centro de Saúde de Moimenta da Beira,,-7.610076,40.971893,Av. da República 3620-334 Moimenta Da Beira,254520250,ctecnico.mbeira@srsvreal.min-saude.pt,Viseu,http://api.pds.min-saude.pt/api/Tems/standbytime?id=431,False,False,False,True,
209,"Hospital Santa Marta (Centro Hospitalar Lisboa Central, EPE)",Centro Hospitalar Lisboa Central,-9.145538807,38.72356313,Rua de Santa Marta 1169-024 Lisboa,213594000,sec.adm.hsm@chlc.min-saude.pt,Lisboa,http://api.pds.min-saude.pt/api/Tems/standbytime?id=209,False,True,True,False,http://www.chlc.min-saude.pt/
215,"Hospital São Bernardo (Centro Hospitalar de Setúbal, EPE)","Centro Hospitalar de Setúbal, EPE",-8.883224,38.5291742,R. Camilo Castelo Branco - Apartado 140 2910-446 Setúbal,265549000,geral@chs.min-saude.pt,Setúbal,http://api.pds.min-saude.pt/api/Tems/standbytime?id=215,True,True,True,True,http://www.chs.min-saude.pt
2565,"Hospital Pêro da Covilhã (Centro Hospitalar Cova da Beira, EPE)","Centro Hospitalar Cova da Beira, EPE",-7.49227,40.26606815,Quinta do Alvito 6200-251 Covilhã,275330000,info@chcbeira.min-saude.pt,Castelo Branco,http://api.pds.min-saude.pt/api/Tems/standbytime?id=2565,True,True,True,True,http://www.chcbeira.pt
175,"Hospital Cândido de Figueiredo - Tondela (Centro Hospitalar Tondela-Viseu, EPE)","Centro Hospitalar Tondela-Viseu, EPE",-8.083142638,40.51689,Av. General Humberto Delgado 3460-525 Tondela,232819060,ca@hdtondela.min-saude.pt,Viseu,http://api.pds.min-saude.pt/api/Tems/standbytime?id=175,True,True,True,True,http://www.hstviseu.min-saude.pt/
203,"Hospital Dr. Manoel Constâncio - Abrantes (Centro Hospitalar Médio Tejo, EPE)","Centro Hospitalar Médio Tejo, EPE",-8.243175,39.503815,Largo Engenheiro Bioucas 2200-202 Abrantes,241360700,geral@chmt.min-saude.pt,Santarém,http://api.pds.min-saude.pt/api/Tems/standbytime?id=203,True,True,True,True,http://www.chmt.min-saude.pt/
214,Hospital Vila Franca de Xira,,-8.985314369,38.97796042,"Estrada Nacional Nº1, Povos 2600-009 Vila Franca de Xira",263006500,hvfxira@hvfx.pt,Lisboa,http://api.pds.min-saude.pt/api/Tems/standbytime?id=214,True,True,True,True,http://www.hospitalvilafrancadexira.pt
149,Hospital de Braga,,-8.417804,41.542624,Lugar das Sete Fontes 4710-243 Braga,253027000,hbraga@hospitaldebraga.pt,Braga,http://api.pds.min-saude.pt/api/Tems/standbytime?id=149,True,True,True,True,https://www.hospitaldebraga.pt/
216,"Hospital São Francisco Xavier (Centro Hospitalar de Lisboa Ocidental, EPE)","Centro Hospitalar de Lisboa Ocidental, EPE",-9.220508117,38.7076959,Estrada do Forte do Alto do Duque 1449-005 Lisboa,210431000,hsfxavier@chlo.min-saude.pt,Lisboa,http://api.pds.min-saude.pt/api/Tems/standbytime?id=216,True,True,True,True,http://www.chlo.min-saude.pt/
182,"Hospital Conde de Sucena – Águeda (Centro Hospitalar do Baixo Vouga, EPE)","Centro Hospitalar do Baixo Vouga, EPE",-8.449143,40.5759082,Rua da Misericórdia 3750-130 Águeda,234611000,geral@hdagueda.min-saude.pt,Aveiro,http://api.pds.min-saude.pt/api/Tems/standbytime?id=182,True,True,True,True,http://www.chbv.min-saude.pt
183,"Hospital Distrital de Lamego (Centro Hospitalar de Trás-os-Montes e Alto Douro, EPE)","Centro Hospitalar de Trás-os-Montes e Alto Douro, EPE",-7.795880735,41.083727298,Lugar de Calvilhe 5100-038 Lamego,254609980,geral@chtmad.min-saude.pt,Viseu,http://api.pds.min-saude.pt/api/Tems/standbytime?id=183,True,True,True,True,http://www.chtmad.min-saude.pt
195,"Hospital Visconde de Salreu - Estarreja (Centro Hospitalar do Baixo Vouga, EPE)","Centro Hospitalar do Baixo Vouga, EPE",-8.5673317,40.747907,Apartado 46 3860-756 Estarreja,234810000,geral@hvsalreu.min-saude.pt,Aveiro,http://api.pds.min-saude.pt/api/Tems/standbytime?id=195,False,True,True,False,http://www.chbv.min-saude.pt
201,Hospital Júlio de Matos (Centro Hospitalar Psiquiátrico de Lisboa),Centro Hospitalar Psiquiátrico de Lisboa,-9.147035,38.756301,"Av. do Brasil, 53 1749-002 Lisboa",217917000,administracao@chpl.min-saude.pt,Lisboa,http://api.pds.min-saude.pt/api/Tems/standbytime?id=201,False,True,False,False,http://www.chpl.pt/
228,"Instituto Português de Oncologia de Lisboa Francisco Gentil, EPE",IPO Lisboa,-9.163105,38.73956,Rua Prof. Lima Basto 1099-023 Lisboa,217229800,ipofg@ipolisboa.min-saude.pt,Lisboa,http://api.pds.min-saude.pt/api/Tems/standbytime?id=228,False,True,True,False,http://www.ipolisboa.min-saude.pt/
232,Hospital São Paulo - Serpa,"Unidade Local de Saúde do Baixo Alentejo, EPE",-7.595917,37.944371,Largo de São Paulo 7830-386 Serpa,284544715, geral.serpa@ulsba.min-saude.pt,Beja,http://api.pds.min-saude.pt/api/Tems/standbytime?id=232,False,True,True,False,http://www.ulsba.min-saude.pt/
160,Centro Materno-Infantil do Norte (Centro Hospitalar do Porto),"Centro Hospitalar do Porto, EPE",-8.623216152,41.15119265,Largo da Maternidade 4050-371 Porto,226087400,seccg.dmn@chporto.min-saude.pt,Porto,http://api.pds.min-saude.pt/api/Tems/standbytime?id=160,False,True,True,True,http://www.chporto.pt/
233,"Hospital Espírito Santo de Évora, EPE",,-7.903353,38.568662,Largo Senhor da Pobreza 7000-811 Évora,266740100,geral@hevora.min-saude.pt,Évora,http://api.pds.min-saude.pt/api/Tems/standbytime?id=233,False,True,True,True,http://www.hevora.min-saude.pt
136,"Hospital Distrital de Macedo de Cavaleiros (Unidade Local de Saúde do Nordeste, EPE)","Unidade Local de Saúde do Nordeste, EPE",-6.959864,41.535443,Rua Dr. Urze Pires 5340-263 Macedo de Cavaleiros,278428200,secretariado@ulsne.min-saude.pt,Bragança,http://api.pds.min-saude.pt/api/Tems/standbytime?id=136,True,True,True,True,http://www.ulsne.min-saude.pt
2561,"Hospital Distrital de Vila Nova de Gaia (Centro Hospitalar de Vila Nova de Gaia/Espinho, EPE)",Hospital Distrital Vila Nova de Gaia,-8.6122023,41.1286183,Rua Dr. Francisco sá Carneiro 4400-129 Vila Nova de Gaia,227865100,geral@chvng.min-saude.pt,Porto,http://api.pds.min-saude.pt/api/Tems/standbytime?id=2561,True,True,True,True,http://www.chvng.min-saude.pt
225,"Hospital Garcia de Orta, EPE",,-9.176903,38.673149,"Av. Torrado da Silva, Pragal 2801-951 Almada",212940294,geral@hgo.min-saude.pt,Setúbal,http://api.pds.min-saude.pt/api/Tems/standbytime?id=225,True,True,True,True,http://www.hgo.pt
75458,Hospital Beatriz Ângelo,,-9.177103043,38.82388991,"Avenida Carlos Teixeira, 3 2674 Loures",219847200,geral@hbeatrizangelo.pt,Lisboa,http://api.pds.min-saude.pt/api/Tems/standbytime?id=75458,True,True,True,True,http://www.hbeatrizangelo.pt/
235,"Hospital José Joaquim Fernandes - Beja (Unidade Local de Saúde do Baixo Alentejo, EPE)","Unidade Local de Saúde do Baixo Alentejo, EPE",-7.870084047,38.0142877,Rua Dr. António Fernando Covas Lima 780 Beja,284310200,ca@ulsba.min-saude.pt,Beja,http://api.pds.min-saude.pt/api/Tems/standbytime?id=235,True,True,True,True,http://www.ulsba.min-saude.pt/
155,"Hospital Padre Américo - Vale do Sousa (Centro Hospitalar Tâmega e Sousa, EPE)","Centro Hospitalar Tâmega e Sousa, EPE",-8.313946,41.228408,"Avenida do Hospital Padre Américo, nº210 4564-007 Penafiel",255714000,administracao@chts.min-saude.pt,Porto,http://api.pds.min-saude.pt/api/Tems/standbytime?id=155,True,True,True,True,http://www.chtamegasousa.pt/
2006,Instituto de Oftalmologia Dr. Gama Pinto,,-9.144954,38.721729,"Travessa Larga, 2 1169-019 Lisboa",213553060,gabinete.cidadao@igpinto.min-saude.pt,Lisboa,http://api.pds.min-saude.pt/api/Tems/standbytime?id=2006,False,True,True,False,http://www.institutogamapinto.com
2566,"Hospital do Fundão (Centro Hospitalar Cova da Beira, EPE)","Centro Hospitalar Cova da Beira, EPE",-7.5013,40.13498,Avenida Adolfo Portela 6230-288 Fundão,275330000,direccao.hf@chcbeira.min-saude.pt,Castelo Branco,http://api.pds.min-saude.pt/api/Tems/standbytime?id=2566,False,True,True,False,http://www.chcbeira.pt
190,Hospital José Luciano de Castro - Anadia,,-8.441727161,40.4425543,Rua da Misericórdia - Apartado 93 3780-226  Anadia,231510420,hdanadia@hdanadia.min-saude.pt,Aveiro,http://api.pds.min-saude.pt/api/Tems/standbytime?id=190,False,True,True,False,http://www.hospitalanadia.pt/
159,"Instituto Português de Oncologia de Porto Francisco Gentil, EPE",IPO Porto,-8.605716,41.179108,Rua Dr. António Bernardino de Almeida 4200-072  Porto,225084000,diripo@ipoporto.min-saude.pt,Porto,http://api.pds.min-saude.pt/api/Tems/standbytime?id=159,False,True,True,False,http://www.ipoporto.pt/
555,Centro de Saúde de Montemor-o-Novo,,-8.213613331,38.64532454,Rua Fernando Pessoa 7050-236 Montemor-o-Novo,266898900,csmontemor@alentejocentral.min-saude.pt,Évora,http://api.pds.min-saude.pt/api/Tems/standbytime?id=555,False,False,False,True,
144,"Hospital Nossa Senhora da Conceição de Valongo (Centro Hospitalar de São João, EPE)","Centro Hospitalar de São João, EPE",-8.49882334,41.18710409,Rua da Misericórdia 4440-563 Valongo,224220019,secretariado@hvalongo.min-saude.pt,Porto,http://api.pds.min-saude.pt/api/Tems/standbytime?id=144,False,True,True,False,http://portal-chsj.min-saude.pt
517,Centro de Saúde de Alcácer do Sal,,-8.509792,38.375347,Avenida José Saramago 7580-206 Alcácer do Sal,265610500,ucsp.alcacer@alentejolitoral.min-saude.pt,Setúbal,http://api.pds.min-saude.pt/api/Tems/standbytime?id=517,False,False,False,True,
226,"Hospital Ortopédico Sant'Iago do Outão (Centro Hospitalar de Setúbal, EPE)","Centro Hospitalar de Setúbal, EPE",-8.935574,38.510583,Outão 2900-182 Setúbal,265543900,geral@chs.min-saude.pt,Setúbal,http://api.pds.min-saude.pt/api/Tems/standbytime?id=226,False,True,True,False,http://www.chs.min-saude.pt
362,Centro de Saúde de Arganil,,-8.054373264,40.21588994,"Rua Condessa das Canas, 18 3300-036 Arganil",235200100,cs05@srscoimbra.min-saude.pt,Coimbra,http://api.pds.min-saude.pt/api/Tems/standbytime?id=362,False,False,False,True,
210,"Hospital Santo António dos Capuchos (Centro Hospitalar Lisboa Central, EPE)",Centro Hospitalar Lisboa Central,-9.141437,38.72153,Alameda Santo António dos Capuchos 1169-050 Lisboa,213136300,sec.adm.capuchos@chlc.min-saude.pt,Lisboa,http://api.pds.min-saude.pt/api/Tems/standbytime?id=210,False,True,True,False,http://www.chlc.min-saude.pt/
206,"Hospital de Curry Cabral (Centro Hospitalar Lisboa Central, EPE)","Centro Hospitalar de Lisboa Central, EPE",-9.153856,38.739834,"Rua da Beneficência, 8 1069-166 Lisboa",217924200,cadm@hccabral.min-saude.pt,Lisboa,http://api.pds.min-saude.pt/api/Tems/standbytime?id=206,False,True,True,False,http://www.chlc.min-saude.pt/
180,"Hospital de Santo André - Leiria (Centro Hospitalar de Leiria, EPE) ","Centro Hospitalar de Leiria, EPE",-8.79425,39.743472,Rua das Olhalvas. Pousos 2410-197 L Leiria,244817000,secca@chleiria.min-saude.pt,Leiria,http://api.pds.min-saude.pt/api/Tems/standbytime?id=180,True,True,True,True,http://www.chleiria.pt
150,"Hospital Santa Maria Maior, EPE - Barcelos",,-8.616605,41.53261,Campo da República 4754-909 Barcelos,253809200,secadm@hbarcelos.min-saude.pt,Braga,http://api.pds.min-saude.pt/api/Tems/standbytime?id=150,True,True,True,True,http://www.hbarcelos.min-saude.pt/
587,"Centro de Saúde de Loulé (SUB - Centro Hospitalar do Algarve, EPE)","Centro Hospitalar do Algarve, EPE",-8.0136811,37.1453962,Av. Engenheiro Laginha Serafim 8100-740 Loulé,289401000,administracao@chalgarve.min-saude.pt,Faro,http://api.pds.min-saude.pt/api/Tems/standbytime?id=587,True,False,False,True,http://www.chalgarve.min-saude.pt
218,"Hospital Santa Maria (Centro Hospitalar de Lisboa Norte, EPE)","Centro Hospitalar de Lisboa Norte, EPE",-9.160559177,38.7482765,Av. Professor Egas Moniz 1649-035 Lisboa,217805000,administracao@chln.min-saude.pt,Lisboa,http://api.pds.min-saude.pt/api/Tems/standbytime?id=218,True,True,True,True,http://www.chln.min-saude.pt
65413,Hospital de Cascais Dr. José de Almeida,,-9.418576956,38.73094322,Av. Brigadeiro Victor Novais Gonçalves 2755-009 Alcabideche,214653000,geral@hospitaldecascais.pt,Lisboa,http://api.pds.min-saude.pt/api/Tems/standbytime?id=65413,True,True,True,True,http://www.hospitaldecascais.pt
184,"Hospital São Miguel - Oliveira de Azeméis (Centro Hospitalar Entre o Douro e Vouga, EPE)","Centro Hospitalar de Entre Douro e Vouga, EPE",-8.472025394,40.84175234,Largo Rizzo Terra 3720-275 Oliveira de Azeméis,256600800,hsm@chedv.min-saude.pt,Aveiro,http://api.pds.min-saude.pt/api/Tems/standbytime?id=184,True,True,True,True,http://www.chedv.min-saude.pt
229,"Maternidade Dr. Alfredo da Costa (Centro Hospitalar Lisboa Central, EPE)","Centro Hospitalar de Lisboa Central, EPE",-9.147695303,38.73099561,Rua Viriato 1069-089  Lisboa,213184000,dirclinica@chlc.min-saude.pt,Lisboa,http://api.pds.min-saude.pt/api/Tems/standbytime?id=229,False,True,True,True,http://www.chlc.min-saude.pt/
553,Centro de Saúde de Estremoz,,-7.583389,38.845309,Av. 9 de Abril 7100-500 Estremoz,268337700,csestremoz@alentejocentral.min-saude.pt,Évora,http://api.pds.min-saude.pt/api/Tems/standbytime?id=553,False,False,False,True,
546,Centro de Saúde de Odemira,,-8.616067,37.621206,Vale Pêgas de Baixo 7630-236 Odemira,283320130,csodemira@ulsla.min-saude.pt,Beja,http://api.pds.min-saude.pt/api/Tems/standbytime?id=546,False,False,False,True,
174,"Hospital Bernardino Lopes de Oliveira - Alcobaça (Centro Hospitalar de Leiria, EPE) ","Centro Hospitalar de Leiria, EPE",-8.9725,39.550917,Rua do Hospital - Apartado 70 2460-051 Alcobaça,262590400,secca@chleiria.min-saude.pt,Leiria,http://api.pds.min-saude.pt/api/Tems/standbytime?id=174,True,True,True,True,http://www.chleiria.pt
2563,"Hospital Geral - Covões (Centro Hospitalar e Universitário de Coimbra, EPE)","Centro Hospitalar e Universitário de Coimbra, EPE",-8.458752,40.195288,Quinta dos Vales  3046-853 Coimbra,239800100,casec@huc.min-saude.pt,Coimbra,http://api.pds.min-saude.pt/api/Tems/standbytime?id=2563,True,True,True,True,http://www.chuc.min-saude.pt
221,"Hospital Litoral Alentejano (Unidade Local de Saúde do Litoral Alentejano, EPE) ","Unidade Local de Saúde do Litoral Alentejano, EPE",-8.79207,38.041781,Monte do Gilbardinho - Estrada Nacional 261 7540-240 Santiago do Cacém,269818100,geral@ulsla.min-saude.pt,Setúbal,http://api.pds.min-saude.pt/api/Tems/standbytime?id=221,True,True,True,True, http://www.ulsla.min-saude.pt
2562,"Hospital Eduardo Santos Silva (Centro Hospitalar de Vila Nova de Gaia/Espinho, EPE) ",Hospital Eduardo Santos Silva,-8.5920719,41.1058634,Rua Conceição Fernandes 4434-502 Vila Nova de Gaia,227865100,geral@chvng.min-saude.pt,Porto,http://api.pds.min-saude.pt/api/Tems/standbytime?id=2562,True,True,True,True,http://www.chvng.min-saude.pt
231,"Hospital Santa Luzia de Elvas (Unidade Local de Saúde do Norte Alentejano, EPE)","Unidade Local de Saúde do Norte Alentejano, EPE",-7.163029611,38.87548785,Rua Mariana Martins - Apartado 242 7350-954 Elvas,268637200,admin@ulsna.min-saude.pt,Portalegre,http://api.pds.min-saude.pt/api/Tems/standbytime?id=231,True,True,True,True,http://www.ulsna.min-saude.pt/
194,"Hospital Sousa Martins - Guarda (Unidade Local de Saúde da Guarda, EPE)","Unidade Local de Saúde da Guarda, EPE",-7.695869,40.52997,Av. Rainha D. Amélia 6301-857 Guarda,271200200,secretariado.ca@ulsguarda.min-saude.pt,Guarda,http://api.pds.min-saude.pt/api/Tems/standbytime?id=194,True,True,True,True,http://www.ulsguarda.min-saude.pt
5687,"Centro de Saúde de Vila Real de Santo António (SUB - Centro Hospitalar do Algarve, EPE)","Centro Hospitalar do Algarve, EPE",-7.41763,37.190884,Av. Duarte Pacheco 8900-211 Vila Real de Santo António,281530270,administracao@chalgarve.min-saude.pt,Faro,http://api.pds.min-saude.pt/api/Tems/standbytime?id=5687,True,False,False,True,http://www.chalgarve.min-saude.pt
545,"Centro de Saúde Moura (SUB - Unidade Local de Saúde do Baixo Alentejo, EPE)","Unidade Local de Saúde do Baixo Alentejo, EPE",-7.45229,38.137701,Rua dos Açores 7860-222 Moura,285254900,csmoura@ulsba.min-saude.pt,Beja,http://api.pds.min-saude.pt/api/Tems/standbytime?id=545,True,False,False,True,http://www.ulsba.min-saude.pt/
212,"Hospital Egas Moniz (Centro Hospitalar de Lisboa Ocidental, EPE)","Centro Hospitalar de Lisboa Ocidental, EPE",-9.188164473,38.69969946,"Rua da Junqueira, 126 1349-019 Lisboa",210431000,hem@chlo.min-saude.pt,Lisboa,http://api.pds.min-saude.pt/api/Tems/standbytime?id=212,True,True,True,True,http://www.chlo.min-saude.pt/
153,"Hospital Distrital de Chaves (Centro Hospitalar de Trás-os-Montes e Alto Douro, EPE)","Centro Hospitalar de Trás-os-Montes e Alto Douro, EPE",-7.47685343,41.7434178,Av. Dr. Francisco Sá Carneiro 5400-279 Chaves,276300900,geral@chtmad.min-saude.pt,Vila Real,http://api.pds.min-saude.pt/api/Tems/standbytime?id=153,True,True,True,True,http://www.chtmad.min-saude.pt
227,"Hospital Pulido Valente (Centro Hospitalar de Lisboa Norte, EPE)","Centro Hospitalar de Lisboa Norte, EPE",-9.157316,38.765467,"Alameda das Linhas de Torres, 117 1769-001 Lisboa",217548000,administracao@chln.min-saude.pt,Lisboa,http://api.pds.min-saude.pt/api/Tems/standbytime?id=227,False,True,True,False,http://www.chln.min-saude.pt
143,"Hospital de Magalhães Lemos, EPE",,-8.663578033,41.17750729,Rua Professor Álvaro Rodrigues 4149-003  Porto,226192400,hml@hmlemos.min-saude.pt,Porto,http://api.pds.min-saude.pt/api/Tems/standbytime?id=143,False,True,False,False,http://www.hmlemos.min-saude.pt/
2067106,Centro de Medicina de Reabilitação da Região Centro – Rovisco Pais,,-8.762327,40.297793,"Quinta da Fonte Quente, apatado 3 3060-908 Tocha",231440900,cmcrrc@roviscopais.min-saude.pt,Coimbra,http://api.pds.min-saude.pt/api/Tems/standbytime?id=2067106,False,True,False,False,http://www.roviscopais.min-saude.pt
266,Centro de Saúde de Mogadouro,,-6.711959839,41.34287411,"Rua Congregação S. Vicente Paulo, nº 136 5200-207 Mogadouro",279340300,geral@csmogadouro.min-saude.pt,Bragança,http://api.pds.min-saude.pt/api/Tems/standbytime?id=266,True,False,False,True,http://www.acesnordeste.min-saude.pt/mogadouro.html
156,"Hospital Geral de Santo António (Centro Hospitalar do Porto, EPE)","Centro Hospitalar do Porto, EPE",-8.61958,41.146344,Largo Professor Abel Salazar 4099-001 Porto,222077500,ca@chporto.min-saude.pt,Porto,http://api.pds.min-saude.pt/api/Tems/standbytime?id=156,True,True,True,True,http://www.chporto.pt/
152,"Hospital da Senhora da Oliveira Guimarães, EPE ","Centro Hospitalar do Alto Ave, EPE",-8.305083,41.44225,Rua dos Cutileiros 4835-044 Guimarães,253540330,geral@hospitaldeguimaraes.min-saude.pt,Braga,http://api.pds.min-saude.pt/api/Tems/standbytime?id=152,True,True,True,True,http://www.hospitaldeguimaraes.min-saude.pt
580,"Centro de Saúde de Albufeira (SUB - Centro Hospitalar do Algarve, EPE)","Centro Hospitalar do Algarve, EPE",-8.252041,37.100706,Urbanização dos Caliços 8200-200 Albufeira,289598400,administracao@chalgarve.min-saude.pt,Faro,http://api.pds.min-saude.pt/api/Tems/standbytime?id=580,True,False,False,True,http://www.chalgarve.min-saude.pt
2076,"Hospital da Póvoa de Varzim (Centro Hospitalar Póvoa de Varzim/Vila do Conde, EPE)","Centro Hospitalar Póvoa de Varzim Vila do Conde, EPE",-8.758959,41.382884,LARGO DA MISERICÓRDIA 4490-490  Póvoa de Varzim,252690600,geral@chpvvc.min-saude.pt,Porto,http://api.pds.min-saude.pt/api/Tems/standbytime?id=2076,True,True,True,True,http://www.chpvvc.pt/
204,"Hospital Nossa Senhora da Graça - Tomar (Centro Hospitalar Médio Tejo, EPE)","Centro Hospitalar Médio Tejo, EPE",-8.395279,39.606735,Av. Maria de Lourdes de Mello Castro - Ap. 118 2304-909 Tomar,249810100,geral@chmt.min-saude.pt,Santarém,http://api.pds.min-saude.pt/api/Tems/standbytime?id=204,True,True,True,True,http://www.chmt.min-saude.pt/
139,"Hospital Santa Luzia de Viana do Castelo (Unidade Local de Saúde do Alto Minho, EPE)","Unidade Local de Saúde do Alto Minho, EPE",-8.833617,41.701513,Estrada de Santa Luzia 4904-858 Viana do Castelo,258802100,administracao@ulsam.min-saude.pt,Viana do Castelo,http://api.pds.min-saude.pt/api/Tems/standbytime?id=139,True,True,True,True,http://www.cham.min-saude.pt/
138,"Hospital Conde de Bertiandos - Ponte de Lima (Unidade Local do Alto Minho, EPE)","Unidade Local de Saúde do Alto Minho, EPE",-8.578964,41.767973,Largo Conde de Bertiandos 4990-041 Ponte de Lima,258909500,administracao@ulsam.min-saude.pt,Viana do Castelo,http://api.pds.min-saude.pt/api/Tems/standbytime?id=138,True,True,True,True,http://www.cham.min-saude.pt/
217,"Hospital Santa Cruz (Centro Hospitalar de Lisboa Ocidental, EPE)","Centro Hospitalar de Lisboa Ocidental, EPE",-9.233869314,38.72704511,Av. Professor Reinaldo dos Santos 2799-523 Carnaxide,210431000,hscruz@chlo.min-saude.pt,Lisboa,http://api.pds.min-saude.pt/api/Tems/standbytime?id=217,False,True,True,False,http://www.chlo.min-saude.pt/
157,"Hospital Joaquim Urbano (Centro Hospitalar do Porto, EPE)","Centro Hospitalar do Porto, EPE",-8.594055176,41.15484405,"Rua Câmara Pestana, 348 4369-004  Porto",225899550,hju@hjurbano.min-saude.pt,Porto,http://api.pds.min-saude.pt/api/Tems/standbytime?id=157,False,True,False,False,http://www.chporto.pt/
188,Hospital Dr. Francisco Zagalo - Ovar,,-8.625378,40.859703,Av. Dr. Nunes da Silva 3880-113 Ovar,256579200,hfzovar@hovar.min-saude.pt,Aveiro,http://api.pds.min-saude.pt/api/Tems/standbytime?id=188,False,True,True,False,http://www.hospitalovar.pt/
187,Hospital Arcebispo João Crisóstomo - Cantanhede,,-8.589109182,40.34153149,"R. Padre Américo, Apartado 61 3061-909  Cantanhede",231419210,geral@hdcantanhede.min-saude.pt,Coimbra,http://api.pds.min-saude.pt/api/Tems/standbytime?id=187,False,True,True,False,http://www.hdcantanhede.min-saude.pt/
428,Centro de Saúde de Cinfães,,-8.089292,41.073845,Rua Capitão Salgueiro Maia 4690-047  Cinfães,255561334,ucspcinfaes@cscinfaes.min-saude.pt,Viseu,http://api.pds.min-saude.pt/api/Tems/standbytime?id=428,False,False,False,True,
